INTELSAT 10 (IS-10)     
1 26766U 01019A   25308.23936421 -.00000181  00000+0  00000+0 0  9995
2 26766   8.5346  61.5353 0006466 204.2965 168.5788  0.99076070 43354
INTELSAT 902 (IS-902)   
1 26900U 01039A   25302.31837023 -.00000270  00000+0  00000+0 0  9997
2 26900   5.5323  74.5916 0004367 140.6922 247.1466  1.00272641 88383
INTELSAT 904 (IS-904)   
1 27380U 02007A   25308.24413093 -.00000210  00000+0  00000+0 0  9995
2 27380   6.3549  71.8727 0001605 141.1910 247.0988  1.00269249 49510
DIRECTV 5 (TEMPO 1)     
1 27426U 02023A   25308.47623138 -.00000042  00000+0  00000+0 0  9995
2 27426   4.3004  78.1055 0003528 152.1755 235.0488  1.00271268 85879
INTELSAT 905 (IS-905)   
1 27438U 02027A   25307.93785549  .00000109  00000+0  00000+0 0  9990
2 27438   6.1844  72.5026 0002825 157.8845  13.5295  1.00273936 49106
GALAXY 3C (G-3C)        
1 27445U 02030A   25308.58839392 -.00000138  00000+0  00000+0 0  9993
2 27445   3.1644  80.8917 0001563  84.2463 355.9514  1.00270533 44244
INTELSAT 906 (IS-906)   
1 27513U 02041A   25308.48340605  .00000028  00000+0  00000+0 0  9991
2 27513   5.2302  75.6836 0005180 176.8646  29.6176  1.00270722 84777
GALAXY 13 (HORIZONS-1)  
1 27954U 03044A   25308.57747385  .00000146  00000+0  00000+0 0  9991
2 27954   0.8348  86.9456 0001946 128.9189 246.1112  1.00272627 44325
INTELSAT 10-02          
1 28358U 04022A   25308.60695791  .00000002  00000+0  00000+0 0  9995
2 28358   0.0094  59.5383 0001155 200.1908   1.9155  1.00270195 78300
XM-3 (RHYTHM)           
1 28626U 05008A   25307.51292163 -.00000225  00000+0  00000+0 0  9991
2 28626   0.0693  76.9897 0005374 246.0938 198.1894  0.99842404 40364
DIRECTV 8               
1 28659U 05019A   25308.47271770  .00000014  00000+0  00000+0 0  9991
2 28659   0.0045  19.9010 0003235 212.4483 222.7809  1.00271421 74827
GALAXY 28 (G-28)        
1 28702U 05022A   25308.52353604 -.00000173  00000+0  00000+0 0  9994
2 28702   2.7185  81.7217 0002091 177.9470 244.1456  1.00271828 49724
GALAXY 16 (G-16)        
1 29236U 06023A   25308.58752725 -.00000114  00000+0  00000+0 0  9997
2 29236   0.0217 188.3159 0002855  40.6595 287.6433  1.00271449 70725
DIRECTV 9S              
1 29494U 06043A   25308.58709391 -.00000100  00000+0  00000+0 0  9991
2 29494   1.8374  83.6231 0003162 142.7345 287.9013  1.00270932 49135
GALAXY 17 (G-17)        
1 31307U 07016B   25308.48642270 -.00000192  00000+0  00000+0 0  9990
2 31307   2.3994  82.7305 0006229 150.3371 261.0596  1.00271461 67551
DIRECTV 10              
1 31862U 07032A   25308.26866866 -.00000090  00000+0  00000+0 0  9996
2 31862   0.0038 332.3073 0000947 261.1495 164.2615  1.00268201 43330
INTELSAT 11 (IS-11)     
1 32253U 07044B   25308.61380461  .00000027  00000+0  00000+0 0  9994
2 32253   2.9766  81.4122 0009191 146.3714  70.6240  0.99049412 66224
HORIZONS-2              
1 32388U 07063B   25308.48964358 -.00000240  00000+0  00000+0 0  9990
2 32388   2.0184  83.3858 0004322 163.3678 259.7413  1.00272777 65567
DIRECTV 11              
1 32729U 08013A   25308.51941861 -.00000114  00000+0  00000+0 0  9993
2 32729   0.0060 341.9443 0000368 247.5284 262.3739  1.00273046 43347
GALAXY 18 (G-18)        
1 32951U 08024A   25308.58276056  .00000037  00000+0  00000+0 0  9999
2 32951   0.0151 269.3570 0003139 313.8402 267.6921  1.00272031 43600
INTELSAT 25 (IS-25)     
1 33153U 08034A   25308.45821991 -.00000210  00000+0  00000+0 0  9999
2 33153   2.1249  83.0806 0005291 163.1431 291.2234  1.00269811 63444
GALAXY 19 (G-19)        
1 33376U 08045A   25308.58796059 -.00000127  00000+0  00000+0 0  9995
2 33376   0.0166 267.7060 0002954 315.9863 295.0882  1.00271464 62658
FM-5                    
1 35493U 09034A   25308.59012727 -.00000188  00000+0  00000+0 0  9997
2 35493   0.0198 270.7423 0000440 242.9242  16.7580  1.00270257 44393
INTELSAT 14 (IS-14)     
1 36097U 09064A   25308.45553322 -.00000261  00000+0  00000+0 0  9999
2 36097   0.0226 283.6283 0002788 309.1944 290.1609  1.00270794 58352
INTELSAT 15 (IS-15)     
1 36106U 09067A   25308.55268706 -.00000173  00000+0  00000+0 0  9995
2 36106   0.0208 287.1283 0002482 300.3645 100.7030  1.00270674 38971
DIRECTV 12              
1 36131U 09075A   25308.58683391 -.00000091  00000+0  00000+0 0  9995
2 36131   0.0118  14.5399 0000871 235.8636 262.2487  1.00273003 44304
INTELSAT 16 (IS-16)     
1 36397U 10006A   25308.52815256 -.00000232  00000+0  00000+0 0  9993
2 36397   0.0140 288.2734 0002188 296.1852 293.5316  1.00269639 57402
XM-5                    
1 37185U 10053A   25308.28036638 -.00000011  00000+0  00000+0 0  9998
2 37185   0.0624 269.8235 0000992 231.7617 247.9736  1.00272538 55220
INTELSAT 17 (IS-17)     
1 37238U 10065B   25308.54896038  .00000010  00000+0  00000+0 0  9995
2 37238   0.0151 245.8239 0002306 343.3476  78.5256  1.00274572 50990
INTELSAT 28 (IS-28)     
1 37392U 11016A   25308.45821991 -.00000211  00000+0  00000+0 0  9993
2 37392   1.2213  85.4934 0004082 147.1134 304.6368  1.00271351 51032
INTELSAT 18 (IS-18)     
1 37834U 11056A   25308.60322461  .00000065  00000+0  00000+0 0  9999
2 37834   0.0131 273.3566 0001887 311.3268 216.5926  1.00270796 51551
INTELSAT 22 (IS-22)     
1 38098U 12011A   25308.55008705 -.00000046  00000+0  00000+0 0  9990
2 38098   0.0102 303.6629 0001737 282.5127  88.0296  1.00271976  4939
INTELSAT 19 (IS-19)     
1 38356U 12030A   25308.60878230 -.00000043  00000+0  00000+0 0  9999
2 38356   0.0179 285.8658 0003369 299.4883 203.9479  1.00272929 48198
INTELSAT 20 (IS-20)     
1 38740U 12043A   25308.19239676 -.00000012  00000+0  00000+0 0  9995
2 38740   0.0088 240.9456 0002714 298.6785   1.8466  1.00271858 48491
INTELSAT 21 (IS-21)     
1 38749U 12045A   25308.45293321  .00000000  00000+0  00000+0 0  9998
2 38749   0.0268  80.2277 0002960 160.8391 267.9325  1.00269002 48275
INTELSAT 23 (IS-23)     
1 38867U 12057A   25308.38262499 -.00000272  00000+0  00000+0 0  9998
2 38867   0.0138 264.2610 0002254   1.1893 223.2145  1.00270822 47701
FM-6                    
1 39360U 13058A   25308.30368149 -.00000004  00000+0  00000+0 0  9993
2 39360   0.0183 164.4995 0002955   9.2042 223.2965  1.00269837 43812
INTELSAT 30 (IS-30)     
1 40271U 14062A   25306.87594132 -.00000139  00000+0  00000+0 0  9994
2 40271   0.0182 295.4640 0001250 140.3297 186.9188  1.00271426  4515
DIRECTV 14              
1 40333U 14078B   25308.27027176 -.00000113  00000+0  00000+0 0  9997
2 40333   0.0189 270.7034 0000271 268.8344 222.3227  1.00271390 39781
DIRECTV 15              
1 40663U 15026A   25308.51867062  .00000000  00000+0  00000+0 0  9994
2 40663   0.0209  81.3198 0000200 222.4735 184.0783  1.00269493 38218
SKY MEXICO-1            
1 40664U 15026B   25308.45013080 -.00000222  00000+0  00000+0 0  9998
2 40664   0.0171 282.5110 0002362 309.7905 254.9572  1.00270737 38200
INTELSAT 34 (IS-34)     
1 40874U 15039A   25308.45345321 -.00000273  00000+0  00000+0 0  9997
2 40874   0.0209 276.4614 0000215 230.9830   4.2835  1.00270930 37373
INTELSAT 31 (IS-31)     
1 41581U 16035A   25308.27250689 -.00000138  00000+0  00000+0 0  9992
2 41581   0.0165 252.7561 0001840 329.9125 184.1724  1.00271066 34428
INTELSAT 36 (IS-36)     
1 41747U 16053A   25308.54939372 -.00000012  00000+0  00000+0 0  9990
2 41747   0.0127 316.4188 0001416  23.4913 330.4214  1.00270171 33697
INTELSAT 32E (IS-32E)   
1 41945U 17007B   25308.45587988  .00000000  00000+0  00000+0 0  9998
2 41945   0.0049 299.7077 0000159 304.9234 280.2611  1.00268391 31979
INTELSAT 35E (IS-35E)   
1 42818U 17041A   25308.45761323 -.00000225  00000+0  00000+0 0  9993
2 42818   0.0212 273.3528 0002388 311.5240 309.3600  1.00270431 30560
INTELSAT 37E (IS-37E)   
1 42950U 17059A   25308.38947169 -.00000128  00000+0  00000+0 0  9997
2 42950   0.0160 270.7804 0003191 314.6349 300.7162  1.00271901 29811
AZERSPACE 2 (IS-38)     
1 43632U 18074A   25308.54480036  .00000149  00000+0  00000+0 0  9998
2 43632   0.0199 271.4357 0001540 310.3785  63.4892  1.00271172 26196
HORIZONS-3E             
1 43633U 18074B   25308.37965757 -.00000018  00000+0  00000+0 0  9994
2 43633   0.0145 226.6314 0001202  66.6600  56.2889  1.00269811 26086
AT&T T-16               
1 44333U 19034A   25308.31793963 -.00000103  00000+0  00000+0 0  9996
2 44333   0.0018 348.0421 0000323 167.3967 262.0114  1.00269683 23373
INTELSAT 39 (IS-39)     
1 44476U 19049B   25308.54809370  .00000046  00000+0  00000+0 0  9990
2 44476   0.0125 270.0198 0000414 242.9833 150.3277  1.00269863 22871
GALAXY 30 (G-30)        
1 46114U 20056C   25307.53451837  .00000000  00000+0  00000+0 0  9990
2 46114   0.0172 272.8668 0002451 312.5785 245.0185  1.00270462 19030
GALAXY 33 (G-33)        
1 54026U 22128A   25308.50673532  .00000000  00000+0  00000+0 0  9999
2 54026   0.0153 290.3690 0002041 296.7362 226.3056  1.00271903 11491
GALAXY 34 (G-34)        
1 54027U 22128B   25308.58163388  .00000071  00000+0  00000+0 0  9999
2 54027   0.0191 285.8760 0001463 297.5808 261.0155  1.00271853 11661
GALAXY 31 (G-31)        
1 54243U 22153A   25308.51142227  .00000026  00000+0  00000+0 0  9999
2 54243   0.0135 229.3847 0001878  11.7050 226.0606  1.00271997  4880
GALAXY 32 (G-32)        
1 54244U 22153B   25308.16453870 -.00000162  00000+0  00000+0 0  9992
2 54244   0.0127 293.1405 0001633 355.1976  83.5870  1.00270975 10883
GALAXY 35 (G-35)        
1 54741U 22170A   25308.48367418 -.00000150  00000+0  00000+0 0  9997
2 54741   0.0119 251.7427 0002410 340.7803 252.5103  1.00271095 10648
GALAXY 36 (G-36)        
1 54742U 22170B   25308.52342565 -.00000173  00000+0  00000+0 0  9994
2 54742   0.0181 246.4599 0000998 300.8201 316.2026  1.00272012 10526
GALAXY 37 (G-37)        
1 57493U 23112A   25308.30656068  .00000060  00000+0  00000+0 0  9993
2 57493   0.0203 279.9885 0002367 313.1349 154.0728  1.00273667  8282
